SES-4                   
1 38087U 12007A   17066.12785444 -.00000197  00000-0  00000+0 0  9998
2 38087   0.0080 107.1152 0002289 223.7692 218.1378  1.00268903 18508
BEIDOU G5               
1 38091U 12008A   17066.05534556  .00000029  00000-0  00000+0 0  9995
2 38091   2.0471  54.8150 0003753 235.1723 313.5610  1.00273627 18490
INTELSAT 22 (IS-22)     
1 38098U 12011A   17065.34340861 -.00000085  00000-0  00000+0 0  9994
2 38098   0.0251  46.9331 0001976 300.1901  12.8451  1.00272834 18064
APSTAR 7                
1 38107U 12013A   17065.85683434 -.00000129  00000-0  00000-0 0  9999
2 38107   0.0364  96.5110 0002519 246.6737 206.5237  1.00271863 18189
YAHSAT 1B               
1 38245U 12016A   17065.41131661  .00000100  00000-0  00000+0 0  9994
2 38245   0.0119 184.4581 0001942 158.8378  16.6709  1.00273104 17939
JCSAT-13                
1 38331U 12023A   17065.19967741 -.00000382  00000-0  00000-0 0  9993
2 38331   0.0208 140.3399 0002420 223.2298 356.4320  1.00269432 17531
VINASAT-2               
1 38332U 12023B   17066.12286657 -.00000357  00000-0  00000+0 0  9999
2 38332   0.0361 290.6645 0002603  66.7529 343.6607  1.00271147 17638
NIMIQ 6                 
1 38342U 12026A   17064.79823564 -.00000198  00000-0  00000+0 0  9991
2 38342   0.0415 295.9773 0002704  46.1158  17.8718  1.00272062 17608
CHINASAT 2A (ZX 2A)     
1 38352U 12028A   17066.24166091 -.00000320  00000-0  00000+0 0  9998
2 38352   0.0359 266.2361 0005697  77.1476   6.9504  1.00268426 17657
INTELSAT 19 (IS-19)     
1 38356U 12030A   17066.08054792 -.00000085  00000-0  00000+0 0  9999
2 38356   0.0189 282.2863 0002938  71.8293   5.8523  1.00272090 17538
ECHOSTAR 17             
1 38551U 12035A   17064.84258062 -.00000099  00000-0  00000-0 0  9995
2 38551   0.0217 148.8301 0002234 195.9772  15.1860  1.00271490 17081
METEOSAT-10 (MSG-3)     
1 38552U 12035B   17065.54400855 -.00000034  00000-0  00000+0 0  9991
2 38552   0.7219  47.1325 0000824 219.8279  93.0039  1.00268298 17231
SES-5                   
1 38652U 12036A   17065.79986373  .00000006  00000-0  00000+0 0  9992
2 38652   0.0431 267.2309 0002213  64.0910 126.2914  1.00272470 17085
TIANLIAN 1-03           
1 38730U 12040A   17065.51379962  .00000045  00000-0  00000-0 0  9998
2 38730   0.1261 267.4381 0001478  94.0270 358.5080  1.00269116 14725
INTELSAT 20 (IS-20)     
1 38740U 12043A   17065.35340582 -.00000050  00000-0  00000+0 0  9996
2 38740   0.0210 137.0049 0000994  48.5563 174.4109  1.00272646 16847
HYLAS 2                 
1 38741U 12043B   17065.45716440  .00000128  00000-0  00000+0 0  9993
2 38741   0.0488 284.8038 0002088  66.6744   8.4912  1.00272658 16865
INTELSAT 21 (IS-21)     
1 38749U 12045A   17065.70379153 -.00000311  00000-0  00000-0 0  9993
2 38749   0.0131 120.5520 0002177 217.6893  21.7218  1.00271162 16565
ASTRA 2F                
1 38778U 12051A   17065.46495843  .00000123  00000-0  00000+0 0  9999
2 38778   0.0850 245.9465 0003014  26.3530  87.6390  1.00269011 16303
GSAT-10                 
1 38779U 12051B   17065.31323181 -.00000190  00000-0  00000-0 0  9995
2 38779   0.0363 251.7568 0001298 106.2874   1.9286  1.00270896 16130
INTELSAT 23 (IS-23)     
1 38867U 12057A   17065.68990109 -.00000311  00000-0  00000-0 0  9994
2 38867   0.0425 267.0095 0001850  69.8897  23.0648  1.00273552 16011
BEIDOU G6               
1 38953U 12059A   17066.59038215 -.00000204  00000-0  10000-3 0  9999
2 38953   1.4473  80.0252 0005196 184.8565 197.1128  1.00273756 16078
LUCH 5B                 
1 38977U 12061A   17065.80610310 -.00000157  00000-0  00000-0 0  9996
2 38977   3.3360  75.2702 0003746 260.4163 102.8876  1.00272488 16197
YAMAL 300K              
1 38978U 12061B   17065.70195338  .00000044  00000-0  00000-0 0  9998
2 38978   0.0040 154.0769 0000585  34.2113  51.9320  1.00271293 15646
STAR ONE C3             
1 38991U 12062A   17065.56576027 -.00000275  00000-0  00000-0 0  9993
2 38991   0.0168 148.4578 0002597 181.7839 322.8817  1.00272912 15780
EUTELSAT 21B            
1 38992U 12062B   17065.48338489  .00000103  00000-0  00000+0 0  9991
2 38992   0.0663   3.2409 0002026 357.5387 359.1937  1.00270918 15881
ECHOSTAR 16             
1 39008U 12065A   17064.71627327 -.00000306  00000-0  00000+0 0  9996
2 39008   0.0118 154.0715 0002019 186.9901  18.9057  1.00272334 15818
CHINASAT 12 (ZX 12)     
1 39017U 12067A   17065.85951115 -.00000234  00000-0  00000+0 0  9999
2 39017   0.0176 129.2632 0002925 213.7357 218.6744  1.00272287 15723
EUTELSAT 70B            
1 39020U 12069A   17065.34787116 -.00000069  00000-0  00000-0 0  9994
2 39020   0.0656 344.3798 0001940 339.1803  36.3999  1.00272353 15527
YAMAL 402               
1 39022U 12070A   17066.02178969  .00000058  00000-0  10000-3 0  9995
2 39022   0.0091 132.6461 0002454 219.2936 235.6934  1.00271778 15616
SKYNET 5D               
1 39034U 12075A   17065.90362698  .00000072  00000-0  00000+0 0  9994
2 39034   0.0701 358.5630 0003929 341.5202 202.7372  1.00270086 15530
MEXSAT 3                
1 39035U 12075B   17065.86116503 -.00000053  00000-0  00000+0 0  9992
2 39035   0.0430 240.8160 0001832  83.8720  35.2718  1.00271926 15495
TDRS 11                 
1 39070U 13004A   17064.93284759  .00000074  00000-0  00000-0 0  9993
2 39070   5.5266 328.7550 0010544 302.4736  57.4227  1.00279663 12705
AMAZONAS 3              
1 39078U 13006A   17065.71201931 -.00000309  00000-0  00000+0 0  9992
2 39078   0.0421 230.7325 0002250  68.1287  61.0886  1.00272052 14989
AZERSPACE 1             
1 39079U 13006B   17066.11007492  .00000105  00000-0  00000+0 0  9997
2 39079   0.0202 261.5267 0002216 101.6379 247.4415  1.00272977 14941
EUTELSAT 117 WEST A     
1 39122U 13012A   17064.86942953 -.00000037  00000-0  00000-0 0  9999
2 39122   0.0437 281.1755 0002586  69.2918   9.5021  1.00272815 14466
ANIK G1                 
1 39127U 13014A   17065.84037074 -.00000101  00000-0  00000+0 0  9995
2 39127   0.0366 271.0045 0002785  45.1792  43.7662  1.00271828 14279
CHINASAT 11 (ZX 11)     
1 39157U 13020A   17066.24406948 -.00000319  00000-0  00000+0 0  9991
2 39157   0.0129 169.2106 0003151 130.0605  51.7158  1.00269764 14163
EUTELSAT 7B             
1 39163U 13022A   17064.52653249  .00000024  00000-0  00000-0 0  9990
2 39163   0.0488 341.3556 0005564  14.5718   4.0431  1.00270671 14008
SES-6                   
1 39172U 13026A   17066.19431115 -.00000289  00000-0  00000+0 0  9998
2 39172   0.0296  56.0803 0002021 279.3495 219.1038  1.00271386 13744
IRNSS-1A                
1 39199U 13034A   17056.74562019  .00000091  00000-0  00000+0 0  9994
2 39199  28.6377 116.9724 0021484 185.7154 176.8140  1.00266901 13574
ALPHASAT                
1 39215U 13038A   17065.55952059  .00000113  00000-0  00000+0 0  9998
2 39215   1.6090  30.1479 0002160 310.7304  49.8318  1.00274345 13282
INSAT-3D                
1 39216U 13038B   17065.31575760 -.00000181  00000-0  00000+0 0  9999
2 39216   0.0213 121.1004 0001882 204.9564  33.9046  1.00270982 13319
EUTELSAT 25B            
1 39233U 13044A   17066.70523637  .00000114  00000-0  00000+0 0  9990
2 39233   0.0533   3.4240 0001823 332.1480 109.3855  1.00274002 12922
GSAT-7                  
1 39234U 13044B   17065.33808329 -.00000102  00000-0  00000+0 0  9991
2 39234   0.0120 179.4939 0003996 118.3828  62.0562  1.00271082 12911
AMOS-4                  
1 39237U 13045A   17065.36307432 -.00000019  00000-0  00000-0 0  9995
2 39237   0.0166 187.1505 0002415 148.3913  24.4200  1.00273618 12976
ASTRA 2E                
1 39285U 13056A   17065.46417437  .00000124  00000-0  00000-0 0  9994
2 39285   0.0611  27.4836 0002112 319.8038  12.6803  1.00274863 12481
SIRIUS FM-6             
1 39360U 13058A   17064.86763537 -.00000041  00000-0  00000+0 0  9996
2 39360   0.0214 100.2256 0000419  54.7673 204.9836  1.00270651 12357
RADUGA-1M 3             
1 39375U 13062A   17065.79331700 -.00000066  00000-0  00000-0 0  9991
2 39375   0.0142 192.3667 0001498 139.9942 187.9364  1.00273051 12144
SES-8                   
1 39460U 13071A   17065.28002444 -.00000295  00000-0  00000+0 0  9993
2 39460   0.0574 277.0144 0002084  89.2912 353.6702  1.00271676 11884
INMARSAT 5-F1           
1 39476U 13073A   17066.05534556  .00000000  00000-0  00000+0 0  9995
2 39476   0.0186 150.7393 0000585 122.5795 334.1432  1.00273002 11943
TKSAT-1 (TUPAC KATARI)  
1 39481U 13075A   17066.44356728 -.00000224  00000-0  00000+0 0  9998
2 39481   0.0437 331.0153 0003294 356.2572 270.5359  1.00271998 11869
EXPRESS-AM5             
1 39487U 13077A   17065.89894568 -.00000308  00000-0  00000+0 0  9996
2 39487   0.0403 299.0181 0001340 155.5781 173.8073  1.00269674 12388
GSAT-14                 
1 39498U 14001A   17065.33822410 -.00000103  00000-0  00000-0 0  9996
2 39498   0.0860 261.4355 0003201 124.4804 334.0731  1.00270963 11465
THAICOM 6               
1 39500U 14002A   17066.01247090 -.00000148  00000-0  00000+0 0  9990
2 39500   0.0562 128.5720 0001188 255.7034 223.6039  1.00270544 11539
TDRS 12                 
1 39504U 14004A   17065.59063034 -.00000291  00000-0  00000+0 0  9991
2 39504   6.0857 336.2114 0003324   9.8832 350.1359  1.00274768 11464
ABS-2                   
1 39508U 14006A   17065.33558282 -.00000112  00000-0  00000+0 0  9995
2 39508   0.0470 300.9857 0003665  52.9193   6.0637  1.00272436 11345
ATHENA-FIDUS            
1 39509U 14006B   17065.43846413  .00000128  00000-0  00000+0 0  9999
2 39509   0.0172 156.3360 0001496 189.1628  14.4970  1.00271150 11517
TURKSAT 4A              
1 39522U 14007A   17065.42677562  .00000120  00000-0  00000-0 0  9994
2 39522   0.0566 277.4311 0004274  33.4178  49.0871  1.00273139 11016
EXPRESS-AT1             
1 39612U 14010A   17066.20814303  .00000050  00000-0  00000+0 0  9992
2 39612   0.0415 303.0773 0000704 164.2572 188.6741  1.00272592 11065
